[{"OBJECT_NAME":"STARLINK-36126","OBJECT_ID":"2025-281U","EPOCH":"2026-03-08T04:53:44.439648","MEAN_MOTION":15.27614315,"ECCENTRICITY":0.00011424,"INCLINATION":43,"RA_OF_ASC_NODE":352.2644,"ARG_OF_PERICENTER":275.0337,"MEAN_ANOMALY":85.0384,"EPHEMERIS_TYPE":0,"CLASSIFICATION_TYPE":"U","NORAD_CAT_ID":66866,"ELEMENT_SET_NO":999,"REV_AT_EPOCH":1594,"BSTAR":0.00079339144,"MEAN_MOTION_DOT":0.00021657,"MEAN_MOTION_DDOT":0},{"OBJECT_NAME":"CZ-4B R\/B","OBJECT_ID":"2010-051C","EPOCH":"2026-03-09T16:48:37.977120","MEAN_MOTION":15.17426017,"ECCENTRICITY":0.00758037,"INCLINATION":97.7974,"RA_OF_ASC_NODE":110.8647,"ARG_OF_PERICENTER":95.044,"MEAN_ANOMALY":265.9451,"EPHEMERIS_TYPE":0,"CLASSIFICATION_TYPE":"U","NORAD_CAT_ID":37181,"ELEMENT_SET_NO":999,"REV_AT_EPOCH":84355,"BSTAR":0.00029718512,"MEAN_MOTION_DOT":6.328e-5,"MEAN_MOTION_DDOT":0}]
